STARLINK-33650          
1 63321U 25057Q   25174.39080804  .00009959  00000+0  37088-3 0  9995
2 63321  43.0091  55.0009 0002029 256.0261 104.0365 15.27584350 15856
STARLINK-33689          
1 63322U 25057R   25174.38310970  .00010497  00000+0  39034-3 0  9997
2 63322  43.0038  54.9460 0000508 310.0396  50.0411 15.27586331 16121
STARLINK-33607          
1 63323U 25057S   25173.09722551  .00023995  00000+0  87818-3 0  9997
2 63323  43.0004  62.5063 0001911 280.1832  79.8804 15.27597408 15884
STARLINK-33619          
1 63324U 25057T   25174.37411429  .00009681  00000+0  36082-3 0  9992
2 63324  43.0018  54.8724 0000679 318.0295  42.0504 15.27581978 16124
STARLINK-33612          
1 63325U 25057U   25173.38318277  .00011468  00000+0  42564-3 0  9998
2 63325  43.0000  61.2069 0001253 279.9293  80.1417 15.27578324 15960
STARLINK-33672          
1 63326U 25057V   25174.38953716  .00015129  00000+0  55790-3 0  9996
2 63326  43.0045  54.9818 0001611 272.5396  87.5271 15.27596729 16129
STARLINK-33625          
1 63327U 25057W   25173.02175088  .00028669  00000+0  69057-3 0  9999
2 63327  43.0028  56.7430 0001742 275.8701  84.1957 15.40718190 15982
STARLINK-33699          
1 63328U 25057X   25173.37936210  .00034469  00000+0  82841-3 0  9991
2 63328  42.9996  54.2585 0000880 274.5617  85.5139 15.40710390 16008
STARLINK-33674          
1 63329U 25057Y   25173.03954586  .00012653  00000+0  46843-3 0  9994
2 63329  42.9986  62.9240 0001793 264.1433  95.9214 15.27586661 15912
YUNYAO-1 43             
1 63344U 25059A   25174.44974950  .00002682  00000+0  17908-3 0  9997
2 63344  97.5995 353.7763 0014342 305.5681  54.4209 15.07805287 14183
YUNYAO-1 44             
1 63345U 25059B   25174.50405240  .00002464  00000+0  16478-3 0  9995
2 63345  97.5986 353.8427 0016845 308.5037  51.4679 15.07791245 14197
YUNYAO-1 45             
1 63346U 25059C   25174.50045521  .00002302  00000+0  15394-3 0  9995
2 63346  97.6015 353.8832 0015947 308.6490  51.3310 15.07873346 14192
YUNYAO-1 46             
1 63347U 25059D   25174.45957854  .00002180  00000+0  14647-3 0  9995
2 63347  97.6004 353.7756 0011486 297.1111  62.8945 15.07797854 14180
YUNYAO-1 47             
1 63348U 25059E   25174.49725182  .00002205  00000+0  14728-3 0  9995
2 63348  97.5983 353.8469 0015790 309.8115  50.1723 15.07962714 14188
YUNYAO-1 48             
1 63349U 25059F   25174.49499009  .00002149  00000+0  14333-3 0  9991
2 63349  97.5995 353.8649 0015153 312.1146  47.8794 15.08046465 14184
LEMUR-2-UNTITLED-SC     
1 63351U 25061A   25173.32255313  .00003192  00000+0  20099-3 0  9991
2 63351  97.5208 148.2995 0022069  65.2575 295.0947 15.09692165 13226
LEMUR-2-ESPERANZA       
1 63352U 25061B   25174.37787296  .00002051  00000+0  13040-3 0  9999
2 63352  97.5215 149.3558 0021603  61.1966 299.1429 15.09756246 13382
LEMUR-2-KREMPEL-BRO2    
1 63353U 25061C   25174.36078009  .00002457  00000+0  15403-3 0  9999
2 63353  97.5263 149.4412 0022467  54.6840 305.6486 15.10072994 13382
LEMUR-2-THERMORAPTOR    
1 63354U 25061D   25173.36292704  .00002497  00000+0  15630-3 0  9995
2 63354  97.5268 148.4770 0022222  57.0557 303.2805 15.10114060 13239
LEMUR-2-NEUROSPICY      
1 63355U 25061E   25173.69163215  .00003370  00000+0  20932-3 0  9998
2 63355  97.5189 148.7130 0019959  59.9091 300.4114 15.10193280 13280
LEMUR-2-TILLINFINITY    
1 63356U 25061F   25174.38810856  .00002443  00000+0  15050-3 0  9991
2 63356  97.5184 149.4523 0021156  47.6070 312.6946 15.10739468 13397
LEMUR-2-KREMPEL-BRO1    
1 63357U 25061G   25173.59899777  .00002818  00000+0  17343-3 0  9996
2 63357  97.5184 148.6655 0021570  50.9186 309.3958 15.10632218 13278
LEMUR-2-LANGER2SPACE    
1 63358U 25061H   25173.61747019  .00002931  00000+0  18204-3 0  9994
2 63358  97.5187 148.6482 0019767  58.7642 301.5521 15.10306680 13279
TIANLIAN 2-04           
1 63361U 25062A   25173.87434050 -.00000124  00000+0  00000+0 0  9999
2 63361   5.2967 279.3142 0029966 358.9659  27.8847  1.00271549   998
STARLINK-32840          
1 63363U 25063A   25174.52854835 -.00004424  00000+0 -10057-3 0  9997
2 63363  53.1556 183.1567 0001359 111.5938 248.5212 15.39649589 14968
STARLINK-32543          
1 63364U 25063B   25174.42615855  .00033995  00000+0  85578-3 0  9997
2 63364  53.1568 183.2245 0001224  82.2247 277.8897 15.39630426 14968
STARLINK-33741          
1 63365U 25063C   25174.58335648  .00009797  00000+0  25443-3 0  9992
2 63365  53.1563 182.6305 0000992  78.8851 353.8344 15.39637619 14993
STARLINK-33742          
1 63366U 25063D   25173.06326499  .00165611  00000+0  40779-2 0  9995
2 63366  53.1593 189.6372 0001976  63.4930 296.6277 15.39492845 14718
STARLINK-33734          
1 63367U 25063E   25173.44232036  .00014448  00000+0  49886-3 0  9991
2 63367  53.1601 191.2658 0001070  85.8840 274.2283 15.30208572 14721
STARLINK-33578          
1 63368U 25063F   25174.46397228  .00036619  00000+0  92095-3 0  9994
2 63368  53.1574 183.4514 0001137 104.3456 255.7675 15.39623508 14895
STARLINK-33626          
1 63369U 25063G   25174.40326714  .00033192  00000+0  83575-3 0  9997
2 63369  53.1572 183.0687 0000627 110.0568 250.0504 15.39635505 14891
STARLINK-33657          
1 63370U 25063H   25174.58335648  .00009847  00000+0  25589-3 0  9995
2 63370  53.1566 182.6259 0001077  82.0499 352.5938 15.39614463 14919
STARLINK-33648          
1 63371U 25063J   25173.73995620  .00001127  00000+0  38145-4 0  9990
2 63371  53.1574 186.7526 0001108  94.8047 265.3084 15.39619421 14862
STARLINK-33614          
1 63372U 25063K   25173.06794249  .00021479  00000+0  54510-3 0  9996
2 63372  53.1577 189.6673 0000906  74.2818 285.8286 15.39638964 14767
STARLINK-33617          
1 63373U 25063L   25174.32442505  .00017009  00000+0  43419-3 0  9992
2 63373  53.1568 183.2876 0001444  96.4319 263.6851 15.39625259 14881
STARLINK-33618          
1 63374U 25063M   25174.45889182  .00021642  00000+0  54918-3 0  9997
2 63374  53.1580 182.7039 0000682 182.0281 178.0722 15.39636789 14970
STARLINK-33621          
1 63375U 25063N   25173.44348092  .00035156  00000+0  88383-3 0  9994
2 63375  53.1572 187.7410 0001753  85.9600 274.1605 15.39654330 14774
STARLINK-33539          
1 63376U 25063P   25174.42943144  .00020294  00000+0  69549-3 0  9993
2 63376  53.1592 186.7629 0000795  68.4698 291.6387 15.30197520 14849
STARLINK-33634          
1 63377U 25063Q   25173.75874381  .00033242  00000+0  83665-3 0  9997
2 63377  53.1579 186.1545 0001727 272.2355  87.8452 15.39647375 14875
STARLINK-33640          
1 63378U 25063R   25174.38469232  .00038802  00000+0  97551-3 0  9999
2 63378  53.1562 182.9503 0001162  77.9829 282.1306 15.39607383 14968
STARLINK-33636          
1 63379U 25063S   25173.32725082  .00020830  00000+0  52914-3 0  9997
2 63379  53.1583 188.4388 0000625  74.7504 285.3570 15.39629166 14750
STARLINK-33653          
1 63380U 25063T   25174.42184180  .00035242  00000+0  88666-3 0  9995
2 63380  53.1570 183.1817 0001143  92.4120 267.7016 15.39630341 14895
STARLINK-33643          
1 63381U 25063U   25174.48178688  .00023647  00000+0  59936-3 0  9992
2 63381  53.1580 182.8466 0001257  55.6160 304.4964 15.39617922 14974
STARLINK-33633          
1 63382U 25063V   25173.40600022  .00033529  00000+0  84416-3 0  9997
2 63382  53.1576 187.5067 0001132  86.2321 273.8813 15.39633318 14777
STARLINK-33748          
1 63383U 25063W   25173.43927256  .00016741  00000+0  57593-3 0  9995
2 63383  53.1585 191.9716 0001592  68.7910 291.3260 15.30207392 14767
STARLINK-33658          
1 63384U 25063X   25174.38436237  .00040047  00000+0  10061-2 0  9999
2 63384  53.1567 182.9478 0000952  90.4311 269.6803 15.39614122 14975
STARLINK-33616          
1 63385U 25063Y   25173.43716285  .00017703  00000+0  60828-3 0  9999
2 63385  53.1570 191.9660 0001550  80.1311 279.9864 15.30205987 14713
STARLINK-33571          
1 63386U 25063Z   25173.48771802  .00012495  00000+0  43328-3 0  9990
2 63386  53.1577 191.5440 0002828  71.5296 288.6011 15.30198911 14683
STARLINK-33533          
1 63387U 25063AA  25174.43544001  .00030330  00000+0  76454-3 0  9990
2 63387  53.1573 183.2677 0000807  85.1275 274.9822 15.39647193 14883
STARLINK-33629          
1 63388U 25063AB  25173.76340875  .00024897  00000+0  63065-3 0  9994
2 63388  53.1576 186.1812 0001739  85.9764 274.1439 15.39606320 14878
STARLINK-33656          
1 63389U 25063AC  25174.35659672  .00021461  00000+0  54479-3 0  9992
2 63389  53.1564 183.4827 0000538  81.7410 278.3656 15.39630788 14951
LEMUR-2-BALTO           
1 63395U 25052BH  25173.52415844  .00003960  00000+0  37203-3 0  9996
2 63395  97.7282  67.0896 0003952 113.9182 246.2452 14.94494182 14942
TJS-16                  
1 63397U 25064A   25173.62722303 -.00000171  00000+0  00000+0 0  9996
2 63397   0.1753  72.1282 0002151  75.2002 142.0344  1.00272012  1074
STARLINK-33531          
1 63399U 25065A   25174.31280126  .00012456  00000+0  30487-3 0  9992
2 63399  43.0009 134.3229 0001493 266.2246  93.8440 15.40708421 13887
STARLINK-33652          
1 63400U 25065B   25173.30900652  .00027546  00000+0  66375-3 0  9997
2 63400  43.0020 139.6847 0001920 280.0521  80.0119 15.40724482 12999
STARLINK-33707          
1 63401U 25065C   25174.26589420  .00020322  00000+0  49244-3 0  9991
2 63401  42.9967 134.8395 0001461 253.3868 106.6828 15.40700377 13642
STARLINK-33668          
1 63402U 25065D   25174.23452666  .00026533  00000+0  63976-3 0  9998
2 63402  43.0021 134.5888 0002711 246.6083 113.4488 15.40719907 13875
STARLINK-33676          
1 63403U 25065E   25174.30607826  .00016510  00000+0  40143-3 0  9992
2 63403  43.0026 134.2703 0002210 256.8064 103.2546 15.40715937 13882
STARLINK-33711          
1 63404U 25065F   25174.25917886  .00031179  00000+0  75052-3 0  9992
2 63404  42.9973 134.7874 0001845 251.8380 108.2276 15.40702653 13926
